SL-16 R/B               
1 25400U 98043G   26054.13760414  .00000077  00000+0  51130-4 0  9995
2 25400  98.8229   7.4002 0010816  59.6130 300.6118 14.26046064436919
SL-16 R/B               
1 25407U 98045B   26054.16402953 -.00000028  00000+0  99458-5 0  9991
2 25407  71.0102 212.1190 0005977  32.0994 328.0493 14.16191356425043
ISS (ZARYA)             
1 25544U 98067A   26054.24990436  .00014749  00000+0  28254-3 0  9992
2 25544  51.6318 143.7335 0008465 124.8398 235.3387 15.48232437554093
CZ-4B R/B               
1 25732U 99025C   26054.12455826  .00000028  00000+0  34275-4 0  9998
2 25732  98.6659  98.7491 0037530  28.4022 352.4286 14.18262208386100
OKEAN-O                 
1 25860U 99039A   26054.11926671  .00000674  00000+0  95286-4 0  9991
2 25860  97.9476 114.1566 0001641  77.2661 282.8734 14.80309768432234
SL-16 R/B               
1 25861U 99039B   26054.11288037  .00000561  00000+0  78043-4 0  9996
2 25861  98.0000 113.2290 0013659 308.0661  51.9319 14.81709186434708
DELTA 2 R/B             
1 25876U 99041E   26054.28310654  .00001824  00000+0  33104-3 0  9995
2 25876  51.7661 358.8153 0502205 305.8918  49.6369 14.11782462360997
HELIOS 1B               
1 25977U 99064A   26054.25285982  .00001805  00000+0  20487-3 0  9993
2 25977  98.1710 316.0711 0002460  94.4254 265.7242 14.87632905683119
TERRA                   
1 25994U 99068A   26054.26521782  .00000454  00000+0  10166-3 0  9990
2 25994  97.9625 108.2487 0001682 190.5445 234.3549 14.60997737392977
SL-16 R/B               
1 26070U 00006B   26054.17567032  .00000183  00000+0  11740-3 0  9996
2 26070  71.0021 128.3569 0017688 210.1807 149.8298 14.15819324346508
TITAN 4B R/B            
1 26474U 00047B   26054.18528924  .00003678  00000+0  23405-3 0  9990
2 26474  67.9882  81.2930 0037730  52.8579 307.6007 15.09416987390728
ENVISAT                 
1 27386U 02009A   26054.30996325  .00000134  00000+0  57249-4 0  9999
2 27386  98.3704   8.2520 0001357  86.6636  85.2772 14.39031003257107
