CCSDS_OMM_VERS = 2.0
CREATION_DATE  = 
ORIGINATOR     = 

OBJECT_NAME    = SL-16 R/B
OBJECT_ID      = 1998-043G
CENTER_NAME    = EARTH
REF_FRAME      = TEME
TIME_SYSTEM    = UTC
MEAN_ELEMENT_THEORY = SGP/SGP4

EPOCH          = 2026-02-23T03:18:08.997696
MEAN_MOTION    = 14.26046064
ECCENTRICITY   = .00108169
INCLINATION    = 98.8229
RA_OF_ASC_NODE = 7.4002
ARG_OF_PERICENTER = 59.6130
MEAN_ANOMALY   = 300.6118

EPHEMERIS_TYPE = 0
CLASSIFICATION_TYPE = U
NORAD_CAT_ID   = 25400
ELEMENT_SET_NO = 999
REV_AT_EPOCH   = 43691
BSTAR          = .51130225E-4
MEAN_MOTION_DOT = .77E-6
MEAN_MOTION_DDOT = 0

CCSDS_OMM_VERS = 2.0
CREATION_DATE  = 
ORIGINATOR     = 

OBJECT_NAME    = SL-16 R/B
OBJECT_ID      = 1998-045B
CENTER_NAME    = EARTH
REF_FRAME      = TEME
TIME_SYSTEM    = UTC
MEAN_ELEMENT_THEORY = SGP/SGP4

EPOCH          = 2026-02-23T03:56:12.151392
MEAN_MOTION    = 14.16191356
ECCENTRICITY   = .00059772
INCLINATION    = 71.0102
RA_OF_ASC_NODE = 212.1190
ARG_OF_PERICENTER = 32.0994
MEAN_ANOMALY   = 328.0493

EPHEMERIS_TYPE = 0
CLASSIFICATION_TYPE = U
NORAD_CAT_ID   = 25407
ELEMENT_SET_NO = 999
REV_AT_EPOCH   = 42504
BSTAR          = .994582E-5
MEAN_MOTION_DOT = -.28E-6
MEAN_MOTION_DDOT = 0

CCSDS_OMM_VERS = 2.0
CREATION_DATE  = 
ORIGINATOR     = 

OBJECT_NAME    = ISS (ZARYA)
OBJECT_ID      = 1998-067A
CENTER_NAME    = EARTH
REF_FRAME      = TEME
TIME_SYSTEM    = UTC
MEAN_ELEMENT_THEORY = SGP/SGP4

EPOCH          = 2026-02-23T05:59:51.736704
MEAN_MOTION    = 15.48232437
ECCENTRICITY   = .00084659
INCLINATION    = 51.6318
RA_OF_ASC_NODE = 143.7335
ARG_OF_PERICENTER = 124.8398
MEAN_ANOMALY   = 235.3387

EPHEMERIS_TYPE = 0
CLASSIFICATION_TYPE = U
NORAD_CAT_ID   = 25544
ELEMENT_SET_NO = 999
REV_AT_EPOCH   = 55409
BSTAR          = .28253556E-3
MEAN_MOTION_DOT = .14749E-3
MEAN_MOTION_DDOT = 0

CCSDS_OMM_VERS = 2.0
CREATION_DATE  = 
ORIGINATOR     = 

OBJECT_NAME    = CZ-4B R/B
OBJECT_ID      = 1999-025C
CENTER_NAME    = EARTH
REF_FRAME      = TEME
TIME_SYSTEM    = UTC
MEAN_ELEMENT_THEORY = SGP/SGP4

EPOCH          = 2026-02-23T02:59:21.833664
MEAN_MOTION    = 14.18262208
ECCENTRICITY   = .00375301
INCLINATION    = 98.6659
RA_OF_ASC_NODE = 98.7491
ARG_OF_PERICENTER = 28.4022
MEAN_ANOMALY   = 352.4286

EPHEMERIS_TYPE = 0
CLASSIFICATION_TYPE = U
NORAD_CAT_ID   = 25732
ELEMENT_SET_NO = 999
REV_AT_EPOCH   = 38610
BSTAR          = .34275019E-4
MEAN_MOTION_DOT = .28E-6
MEAN_MOTION_DDOT = 0

CCSDS_OMM_VERS = 2.0
CREATION_DATE  = 
ORIGINATOR     = 

OBJECT_NAME    = OKEAN-O
OBJECT_ID      = 1999-039A
CENTER_NAME    = EARTH
REF_FRAME      = TEME
TIME_SYSTEM    = UTC
MEAN_ELEMENT_THEORY = SGP/SGP4

EPOCH          = 2026-02-23T02:51:44.643744
MEAN_MOTION    = 14.80309768
ECCENTRICITY   = .00016414
INCLINATION    = 97.9476
RA_OF_ASC_NODE = 114.1566
ARG_OF_PERICENTER = 77.2661
MEAN_ANOMALY   = 282.8734

EPHEMERIS_TYPE = 0
CLASSIFICATION_TYPE = U
NORAD_CAT_ID   = 25860
ELEMENT_SET_NO = 999
REV_AT_EPOCH   = 43223
BSTAR          = .95286309E-4
MEAN_MOTION_DOT = .674E-5
MEAN_MOTION_DDOT = 0

CCSDS_OMM_VERS = 2.0
CREATION_DATE  = 
ORIGINATOR     = 

OBJECT_NAME    = SL-16 R/B
OBJECT_ID      = 1999-039B
CENTER_NAME    = EARTH
REF_FRAME      = TEME
TIME_SYSTEM    = UTC
MEAN_ELEMENT_THEORY = SGP/SGP4

EPOCH          = 2026-02-23T02:42:32.863968
MEAN_MOTION    = 14.81709186
ECCENTRICITY   = .00136597
INCLINATION    = 98.0000
RA_OF_ASC_NODE = 113.2290
ARG_OF_PERICENTER = 308.0661
MEAN_ANOMALY   = 51.9319

EPHEMERIS_TYPE = 0
CLASSIFICATION_TYPE = U
NORAD_CAT_ID   = 25861
ELEMENT_SET_NO = 999
REV_AT_EPOCH   = 43470
BSTAR          = .7804322E-4
MEAN_MOTION_DOT = .561E-5
MEAN_MOTION_DDOT = 0

CCSDS_OMM_VERS = 2.0
CREATION_DATE  = 
ORIGINATOR     = 

OBJECT_NAME    = DELTA 2 R/B
OBJECT_ID      = 1999-041E
CENTER_NAME    = EARTH
REF_FRAME      = TEME
TIME_SYSTEM    = UTC
MEAN_ELEMENT_THEORY = SGP/SGP4

EPOCH          = 2026-02-23T06:47:40.405056
MEAN_MOTION    = 14.11782462
ECCENTRICITY   = .0502205
INCLINATION    = 51.7661
RA_OF_ASC_NODE = 358.8153
ARG_OF_PERICENTER = 305.8918
MEAN_ANOMALY   = 49.6369

EPHEMERIS_TYPE = 0
CLASSIFICATION_TYPE = U
NORAD_CAT_ID   = 25876
ELEMENT_SET_NO = 999
REV_AT_EPOCH   = 36099
BSTAR          = .33104011E-3
MEAN_MOTION_DOT = .1824E-4
MEAN_MOTION_DDOT = 0

CCSDS_OMM_VERS = 2.0
CREATION_DATE  = 
ORIGINATOR     = 

OBJECT_NAME    = HELIOS 1B
OBJECT_ID      = 1999-064A
CENTER_NAME    = EARTH
REF_FRAME      = TEME
TIME_SYSTEM    = UTC
MEAN_ELEMENT_THEORY = SGP/SGP4

EPOCH          = 2026-02-23T06:04:07.088448
MEAN_MOTION    = 14.87632905
ECCENTRICITY   = .00024603
INCLINATION    = 98.1710
RA_OF_ASC_NODE = 316.0711
ARG_OF_PERICENTER = 94.4254
MEAN_ANOMALY   = 265.7242

EPHEMERIS_TYPE = 0
CLASSIFICATION_TYPE = U
NORAD_CAT_ID   = 25977
ELEMENT_SET_NO = 999
REV_AT_EPOCH   = 68311
BSTAR          = .20487305E-3
MEAN_MOTION_DOT = .1805E-4
MEAN_MOTION_DDOT = 0

CCSDS_OMM_VERS = 2.0
CREATION_DATE  = 
ORIGINATOR     = 

OBJECT_NAME    = TERRA
OBJECT_ID      = 1999-068A
CENTER_NAME    = EARTH
REF_FRAME      = TEME
TIME_SYSTEM    = UTC
MEAN_ELEMENT_THEORY = SGP/SGP4

EPOCH          = 2026-02-23T06:21:54.819648
MEAN_MOTION    = 14.60997737
ECCENTRICITY   = .00016826
INCLINATION    = 97.9625
RA_OF_ASC_NODE = 108.2487
ARG_OF_PERICENTER = 190.5445
MEAN_ANOMALY   = 234.3549

EPHEMERIS_TYPE = 0
CLASSIFICATION_TYPE = U
NORAD_CAT_ID   = 25994
ELEMENT_SET_NO = 999
REV_AT_EPOCH   = 39297
BSTAR          = .10165534E-3
MEAN_MOTION_DOT = .454E-5
MEAN_MOTION_DDOT = 0

CCSDS_OMM_VERS = 2.0
CREATION_DATE  = 
ORIGINATOR     = 

OBJECT_NAME    = SL-16 R/B
OBJECT_ID      = 2000-006B
CENTER_NAME    = EARTH
REF_FRAME      = TEME
TIME_SYSTEM    = UTC
MEAN_ELEMENT_THEORY = SGP/SGP4

EPOCH          = 2026-02-23T04:12:57.915648
MEAN_MOTION    = 14.15819324
ECCENTRICITY   = .00176885
INCLINATION    = 71.0021
RA_OF_ASC_NODE = 128.3569
ARG_OF_PERICENTER = 210.1807
MEAN_ANOMALY   = 149.8298

EPHEMERIS_TYPE = 0
CLASSIFICATION_TYPE = U
NORAD_CAT_ID   = 26070
ELEMENT_SET_NO = 999
REV_AT_EPOCH   = 34650
BSTAR          = .11740473E-3
MEAN_MOTION_DOT = .183E-5
MEAN_MOTION_DDOT = 0

CCSDS_OMM_VERS = 2.0
CREATION_DATE  = 
ORIGINATOR     = 

OBJECT_NAME    = TITAN 4B R/B
OBJECT_ID      = 2000-047B
CENTER_NAME    = EARTH
REF_FRAME      = TEME
TIME_SYSTEM    = UTC
MEAN_ELEMENT_THEORY = SGP/SGP4

EPOCH          = 2026-02-23T04:26:48.990336
MEAN_MOTION    = 15.09416987
ECCENTRICITY   = .00377301
INCLINATION    = 67.9882
RA_OF_ASC_NODE = 81.2930
ARG_OF_PERICENTER = 52.8579
MEAN_ANOMALY   = 307.6007

EPHEMERIS_TYPE = 0
CLASSIFICATION_TYPE = U
NORAD_CAT_ID   = 26474
ELEMENT_SET_NO = 999
REV_AT_EPOCH   = 39072
BSTAR          = .234049E-3
MEAN_MOTION_DOT = .3678E-4
MEAN_MOTION_DDOT = 0

CCSDS_OMM_VERS = 2.0
CREATION_DATE  = 
ORIGINATOR     = 

OBJECT_NAME    = ENVISAT
OBJECT_ID      = 2002-009A
CENTER_NAME    = EARTH
REF_FRAME      = TEME
TIME_SYSTEM    = UTC
MEAN_ELEMENT_THEORY = SGP/SGP4

EPOCH          = 2026-02-23T07:26:20.824800
MEAN_MOTION    = 14.39031003
ECCENTRICITY   = .00013578
INCLINATION    = 98.3704
RA_OF_ASC_NODE = 8.2520
ARG_OF_PERICENTER = 86.6636
MEAN_ANOMALY   = 85.2772

EPHEMERIS_TYPE = 0
CLASSIFICATION_TYPE = U
NORAD_CAT_ID   = 27386
ELEMENT_SET_NO = 999
REV_AT_EPOCH   = 25710
BSTAR          = .57249478E-4
MEAN_MOTION_DOT = .134E-5
MEAN_MOTION_DDOT = 0

